{
  "type": "FeatureCollection",
  "features": [
    {
      "type": "Feature",
      "properties": {
        "norad_id": 31088,
        "name": "FENGYUN 1C DEB",
        "group": "fengyun-1c-debris",
        "lat": 38.44996723541487,
        "lon": -127.70477302705686,
        "alt_km": 787.1854648508097,
        "timestamp": "2025-12-10T16:57:11.917017+00:00",
        "meta_object_name": "FENGYUN 1C DEB",
        "meta_object_id": "1999-025BGJ",
        "meta_epoch": "2025-12-10T02:59:24.145728",
        "meta_mean_motion": 14.28664181,
        "meta_eccentricity": 0.00287846,
        "meta_inclination": 99.4104,
        "meta_ra_of_asc_node": 44.1015,
        "meta_arg_of_pericenter": 69.4049,
        "meta_mean_anomaly": 320.4532,
        "meta_ephemeris_type": 0,
        "meta_classification_type": "U",
        "meta_norad_cat_id": 31088,
        "meta_element_set_no": 999,
        "meta_rev_at_epoch": 96512,
        "meta_bstar": 0.0021876386,
        "meta_mean_motion_dot": 5.476e-05,
        "meta_mean_motion_ddot": 0,
        "tle_line1": "1 31088U 99025BGJ 25344.12458502  .00005476  00000+0  21876-2 0  9997",
        "tle_line2": "2 31088  99.4104  44.1015 0028784  69.4049 320.4532 14.28664181965128"
      },
      "geometry": {
        "type": "Point",
        "coordinates": [
          -127.70477302705686,
          38.44996723541487
        ]
      }
    },
    {
      "type": "Feature",
      "properties": {
        "norad_id": 31089,
        "name": "FENGYUN 1C DEB",
        "group": "fengyun-1c-debris",
        "lat": 10.583033861010577,
        "lon": -51.47166022843271,
        "alt_km": 833.407888945655,
        "timestamp": "2025-12-10T16:57:11.917026+00:00",
        "meta_object_name": "FENGYUN 1C DEB",
        "meta_object_id": "1999-025BGK",
        "meta_epoch": "2025-12-07T21:25:32.147616",
        "meta_mean_motion": 13.88305057,
        "meta_eccentricity": 0.02058957,
        "meta_inclination": 98.9488,
        "meta_ra_of_asc_node": 124.1407,
        "meta_arg_of_pericenter": 224.7678,
        "meta_mean_anomaly": 291.3696,
        "meta_ephemeris_type": 0,
        "meta_classification_type": "U",
        "meta_norad_cat_id": 31089,
        "meta_element_set_no": 999,
        "meta_rev_at_epoch": 67992,
        "meta_bstar": 0.0012224374,
        "meta_mean_motion_dot": 1.69e-05,
        "meta_mean_motion_ddot": 0,
        "tle_line1": "1 31089U 99025BGK 25341.89273319  .00001690  00000+0  12224-2 0  9991",
        "tle_line2": "2 31089  98.9488 124.1407 0205895 224.7678 291.3696 13.88305057679922"
      },
      "geometry": {
        "type": "Point",
        "coordinates": [
          -51.47166022843271,
          10.583033861010577
        ]
      }
    },
    {
      "type": "Feature",
      "properties": {
        "norad_id": 31090,
        "name": "FENGYUN 1C DEB",
        "group": "fengyun-1c-debris",
        "lat": -80.60192191164026,
        "lon": -164.56019764661374,
        "alt_km": 497.34787523615796,
        "timestamp": "2025-12-10T16:57:11.917036+00:00",
        "meta_object_name": "FENGYUN 1C DEB",
        "meta_object_id": "1999-025BGL",
        "meta_epoch": "2025-12-09T17:51:45.036000",
        "meta_mean_motion": 15.32856085,
        "meta_eccentricity": 0.00560964,
        "meta_inclination": 98.9819,
        "meta_ra_of_asc_node": 87.1431,
        "meta_arg_of_pericenter": 142.9968,
        "meta_mean_anomaly": 217.5159,
        "meta_ephemeris_type": 0,
        "meta_classification_type": "U",
        "meta_norad_cat_id": 31090,
        "meta_element_set_no": 999,
        "meta_rev_at_epoch": 792,
        "meta_bstar": 0.0024139484,
        "meta_mean_motion_dot": 0.00081172,
        "meta_mean_motion_ddot": 0,
        "tle_line1": "1 31090U 99025BGL 25343.74427125  .00081172  00000+0  24139-2 0  9996",
        "tle_line2": "2 31090  98.9819  87.1431 0056096 142.9968 217.5159 15.32856085  7929"
      },
      "geometry": {
        "type": "Point",
        "coordinates": [
          -164.56019764661374,
          -80.60192191164026
        ]
      }
    },
    {
      "type": "Feature",
      "properties": {
        "norad_id": 31091,
        "name": "FENGYUN 1C DEB",
        "group": "fengyun-1c-debris",
        "lat": -54.03883336384989,
        "lon": -25.16288985155168,
        "alt_km": 873.7067972634395,
        "timestamp": "2025-12-10T16:57:11.917046+00:00",
        "meta_object_name": "FENGYUN 1C DEB",
        "meta_object_id": "1999-025BGM",
        "meta_epoch": "2025-12-10T04:47:50.827776",
        "meta_mean_motion": 13.54141266,
        "meta_eccentricity": 0.02908089,
        "meta_inclination": 99.2244,
        "meta_ra_of_asc_node": 321.4211,
        "meta_arg_of_pericenter": 335.4456,
        "meta_mean_anomaly": 23.3063,
        "meta_ephemeris_type": 0,
        "meta_classification_type": "U",
        "meta_norad_cat_id": 31091,
        "meta_element_set_no": 999,
        "meta_rev_at_epoch": 61605,
        "meta_bstar": 0.0012568098,
        "meta_mean_motion_dot": 1.075e-05,
        "meta_mean_motion_ddot": 0,
        "tle_line1": "1 31091U 99025BGM 25344.19989384  .00001075  00000+0  12568-2 0  9994",
        "tle_line2": "2 31091  99.2244 321.4211 0290808 335.4456  23.3063 13.54141266616055"
      },
      "geometry": {
        "type": "Point",
        "coordinates": [
          -25.16288985155168,
          -54.03883336384989
        ]
      }
    },
    {
      "type": "Feature",
      "properties": {
        "norad_id": 31092,
        "name": "FENGYUN 1C DEB",
        "group": "fengyun-1c-debris",
        "lat": 4.464021353344293,
        "lon": 99.82183281627428,
        "alt_km": 1262.127909126344,
        "timestamp": "2025-12-10T16:57:11.917056+00:00",
        "meta_object_name": "FENGYUN 1C DEB",
        "meta_object_id": "1999-025BGN",
        "meta_epoch": "2025-11-15T07:00:52.552224",
        "meta_mean_motion": 13.46401433,
        "meta_eccentricity": 0.03278725,
        "meta_inclination": 99.7115,
        "meta_ra_of_asc_node": 75.9227,
        "meta_arg_of_pericenter": 204.4209,
        "meta_mean_anomaly": 154.1084,
        "meta_ephemeris_type": 0,
        "meta_classification_type": "U",
        "meta_norad_cat_id": 31092,
        "meta_element_set_no": 999,
        "meta_rev_at_epoch": 91512,
        "meta_bstar": 0.0042000132,
        "meta_mean_motion_dot": 3.457e-05,
        "meta_mean_motion_ddot": 0,
        "tle_line1": "1 31092U 99025BGN 25319.29227491  .00003457  00000+0  42000-2 0  9992",
        "tle_line2": "2 31092  99.7115  75.9227 0327872 204.4209 154.1084 13.46401433915121"
      },
      "geometry": {
        "type": "Point",
        "coordinates": [
          99.82183281627428,
          4.464021353344293
        ]
      }
    },
    {
      "type": "Feature",
      "properties": {
        "norad_id": 31093,
        "name": "FENGYUN 1C DEB",
        "group": "fengyun-1c-debris",
        "lat": -80.70129640214142,
        "lon": -108.6422830614446,
        "alt_km": 859.05003818978,
        "timestamp": "2025-12-10T16:57:11.917066+00:00",
        "meta_object_name": "FENGYUN 1C DEB",
        "meta_object_id": "1999-025BGP",
        "meta_epoch": "2025-12-09T06:35:04.462080",
        "meta_mean_motion": 13.80627228,
        "meta_eccentricity": 0.0208167,
        "meta_inclination": 98.5949,
        "meta_ra_of_asc_node": 182.5834,
        "meta_arg_of_pericenter": 232.6059,
        "meta_mean_anomaly": 125.5985,
        "meta_ephemeris_type": 0,
        "meta_classification_type": "U",
        "meta_norad_cat_id": 31093,
        "meta_element_set_no": 999,
        "meta_rev_at_epoch": 94459,
        "meta_bstar": 0.00074746,
        "meta_mean_motion_dot": 8.84e-06,
        "meta_mean_motion_ddot": 0,
        "tle_line1": "1 31093U 99025BGP 25343.27435720  .00000884  00000+0  74746-3 0  9998",
        "tle_line2": "2 31093  98.5949 182.5834 0208167 232.6059 125.5985 13.80627228944599"
      },
      "geometry": {
        "type": "Point",
        "coordinates": [
          -108.6422830614446,
          -80.70129640214142
        ]
      }
    },
    {
      "type": "Feature",
      "properties": {
        "norad_id": 31094,
        "name": "FENGYUN 1C DEB",
        "group": "fengyun-1c-debris",
        "lat": -58.58117324789284,
        "lon": 17.83232503584668,
        "alt_km": 970.5508362879855,
        "timestamp": "2025-12-10T16:57:11.917076+00:00",
        "meta_object_name": "FENGYUN 1C DEB",
        "meta_object_id": "1999-025BGQ",
        "meta_epoch": "2025-12-10T03:49:41.841984",
        "meta_mean_motion": 14.0202515,
        "meta_eccentricity": 0.01063884,
        "meta_inclination": 98.8553,
        "meta_ra_of_asc_node": 212.087,
        "meta_arg_of_pericenter": 54.1235,
        "meta_mean_anomaly": 306.9754,
        "meta_ephemeris_type": 0,
        "meta_classification_type": "U",
        "meta_norad_cat_id": 31094,
        "meta_element_set_no": 999,
        "meta_rev_at_epoch": 95583,
        "meta_bstar": 0.0019514381,
        "meta_mean_motion_dot": 3.087e-05,
        "meta_mean_motion_ddot": 0,
        "tle_line1": "1 31094U 99025BGQ 25344.15951206  .00003087  00000+0  19514-2 0  9998",
        "tle_line2": "2 31094  98.8553 212.0870 0106388  54.1235 306.9754 14.02025150955837"
      },
      "geometry": {
        "type": "Point",
        "coordinates": [
          17.83232503584668,
          -58.58117324789284
        ]
      }
    }
  ]
}